[{"OBJECT_NAME":"PRAETORIAN SDA_605","OBJECT_ID":"2025-203D","EPOCH":"2026-03-09T14:13:24.756960","MEAN_MOTION":13.83528896,"ECCENTRICITY":0.000955,"INCLINATION":81.2983,"RA_OF_ASC_NODE":102.8978,"ARG_OF_PERICENTER":98.6469,"MEAN_ANOMALY":261.5769,"EPHEMERIS_TYPE":0,"CLASSIFICATION_TYPE":"U","NORAD_CAT_ID":65568,"ELEMENT_SET_NO":999,"REV_AT_EPOCH":2492,"BSTAR":5.2426e-5,"MEAN_MOTION_DOT":7.0e-7,"MEAN_MOTION_DDOT":0},{"OBJECT_NAME":"COSMOS 970 DEB","OBJECT_ID":"1977-121DP","EPOCH":"2026-03-08T11:52:46.278048","MEAN_MOTION":13.75957481,"ECCENTRICITY":0.01115781,"INCLINATION":65.8337,"RA_OF_ASC_NODE":139.952,"ARG_OF_PERICENTER":179.3659,"MEAN_ANOMALY":194.9326,"EPHEMERIS_TYPE":0,"CLASSIFICATION_TYPE":"U","NORAD_CAT_ID":65002,"ELEMENT_SET_NO":999,"REV_AT_EPOCH":61652,"BSTAR":0.00065837472,"MEAN_MOTION_DOT":5.88e-6,"MEAN_MOTION_DDOT":0}]
